ISS (ZARYA)             
1 25544U 98067A   25343.89682520  .00014877  00000+0  27325-3 0  9995
2 25544  51.6313 156.5563 0003347 226.2924 133.7787 15.49459040542419
CSS (TIANHE)            
1 48274U 21035A   25344.15240991  .00032718  00000+0  41039-3 0  9995
2 48274  41.4682  32.4132 0008862   9.3921 350.7081 15.59004040263626
ISS (NAUKA)             
1 49044U 21066A   25343.50984768  .00014141  00000+0  26026-3 0  9999
2 49044  51.6310 158.4724 0003400 223.8185 136.2534 15.49447168230442
FREGAT DEB              
1 49271U 11037PF  25344.06115507  .00003152  00000+0  72060-2 0  9995
2 49271  51.6304 207.3491 0864897 217.8923 135.7926 12.34407912201609
CSS (WENTIAN)           
1 53239U 22085A   25343.57586176  .00032682  00000+0  41053-3 0  9997
2 53239  41.4682  35.9133 0008959   5.1145 354.9784 15.58965688173844
CSS (MENGTIAN)          
1 54216U 22143A   25343.57586176  .00032682  00000+0  41053-3 0  9998
2 54216  41.4682  35.9133 0008959   5.1145 354.9784 15.58965688158641
SHENZHOU-20 (SZ-20)     
1 63632U 25082A   25343.57586176  .00032682  00000+0  41053-3 0  9995
2 63632  41.4682  35.9133 0008959   5.1145 354.9784 15.58965688255304
PROGRESS-MS 31          
1 64751U 25146A   25343.50984768  .00014141  00000+0  26026-3 0  9994
2 64751  51.6310 158.4724 0003400 223.8185 136.2534 15.49447168  6759
TIANZHOU-9              
1 64786U 25149A   25343.57586176  .00032682  00000+0  41053-3 0  9990
2 64786  41.4682  35.9133 0008959   5.1145 354.9784 15.58965688255305
CREW DRAGON 11          
1 65077U 25166A   25343.50984768  .00014141  00000+0  26026-3 0  9998
2 65077  51.6310 158.4724 0003400 223.8185 136.2534 15.49447168  2140
DRAGON CRS-33           
1 65304U 25186A   25343.50984768  .00014141  00000+0  26026-3 0  9993
2 65304  51.6310 158.4724 0003400 223.8185 136.2534 15.49447168   118
PROGRESS-MS 32          
1 65586U 25204A   25343.50984768  .00014141  00000+0  26026-3 0  9996
2 65586  51.6310 158.4724 0003400 223.8185 136.2534 15.49447168   277
